NORAD_CAT_ID,OBJECT_NAME,OBJECT_TYPE,EPOCH,MEAN_MOTION,ECCENTRICITY,INCLINATION,RA_OF_ASC_NODE,ARG_OF_PERICENTER,MEAN_ANOMALY,BSTAR,MEAN_MOTION_DOT,MEAN_MOTION_DDOT,TLE_LINE0,TLE_LINE1,TLE_LINE2,SEMIMAJOR_AXIS,PERIOD,APOGEE,PERIGEE,DECAYED
55664.0,STARLINK-5480,PAYLOAD,2024-07-13 20:29:38,14.98331904,0.000336,69.9991,247.026,267.6834,92.394,1.7335e-05,1.14e-06,0.0,0 STARLINK-5480,1 55664U 23021AN  24195.85392293  .00000114  00000-0  17335-4 0  9995,2 55664  69.9991 247.0260 0003360 267.6834  92.3940 14.98331904 78835,6950.187,96.107,574.387,569.717,0.0
55664.0,STARLINK-5480,PAYLOAD,2024-07-14 04:30:19,14.98329938,0.0003385,69.9989,246.1843,267.499,92.5781,3.0324e-05,2.69e-06,0.0,0 STARLINK-5480,1 55664U 23021AN  24196.18772367  .00000269  00000-0  30324-4 0  9990,2 55664  69.9989 246.1843 0003385 267.4990  92.5781 14.98329938 78588,6950.193,96.107,574.411,569.705,0.0
55664.0,STARLINK-5480,PAYLOAD,2024-07-14 12:30:59,14.98330108,0.0003405,69.9988,245.3424,268.8379,91.239,2.9022e-05,2.53e-06,0.0,0 STARLINK-5480,1 55664U 23021AN  24196.52152371  .00000253  00000-0  29022-4 0  9991,2 55664  69.9988 245.3424 0003405 268.8379  91.2390 14.98330108 78934,6950.193,96.107,574.424,569.691,0.0
55664.0,STARLINK-5480,PAYLOAD,2024-07-14 20:31:39,14.98332254,0.0003408,69.9987,244.5007,268.8852,91.1917,4.5223e-05,4.47e-06,0.0,0 STARLINK-5480,1 55664U 23021AN  24196.85532181  .00000447  00000-0  45223-4 0  9994,2 55664  69.9987 244.5007 0003408 268.8852  91.1917 14.98332254 78983,6950.186,96.107,574.42,569.682,0.0
55664.0,STARLINK-5480,PAYLOAD,2024-07-15 04:32:20,14.98332704,0.0003447,69.9985,243.6592,268.9492,91.1272,7.3529e-05,7.84e-06,0.0,0 STARLINK-5480,1 55664U 23021AN  24197.18912061  .00000784  00000-0  73529-4 0  9994,2 55664  69.9985 243.6592 0003447 268.9492  91.1272 14.98332704 78731,6950.185,96.107,574.445,569.654,0.0
55664.0,STARLINK-5480,PAYLOAD,2024-07-15 12:33:00,14.98332713,0.0003469,69.9985,242.8176,268.5476,91.5286,6.872e-05,7.27e-06,0.0,0 STARLINK-5480,1 55664U 23021AN  24197.52292049  .00000727  00000-0  68720-4 0  9993,2 55664  69.9985 242.8176 0003469 268.5476  91.5286 14.98332713 79080,6950.185,96.107,574.461,569.638,0.0
55664.0,STARLINK-5480,PAYLOAD,2024-07-15 20:33:40,14.9833483,0.0003553,69.9985,241.976,264.6972,95.3782,-4.0406e-05,-5.75e-06,0.0,0 STARLINK-5480,1 55664U 23021AN  24197.85672023 -.00000575  00000-0 -40406-4 0  9997,2 55664  69.9985 241.9760 0003553 264.6972  95.3782 14.98334830 79132,6950.178,96.107,574.512,569.574,0.0
55664.0,STARLINK-5480,PAYLOAD,2024-07-16 04:34:21,14.98327277,0.0003472,69.9984,241.1342,268.2876,91.7885,3.2086e-05,2.9e-06,0.0,0 STARLINK-5480,1 55664U 23021AN  24198.19052431  .00000290  00000-0  32086-4 0  9997,2 55664  69.9984 241.1342 0003472 268.2876  91.7885 14.98327277 78884,6950.201,96.107,574.479,569.653,0.0
55664.0,STARLINK-5480,PAYLOAD,2024-07-16 12:35:01,14.9832811,0.0003479,69.9984,240.2924,268.1165,91.9596,2.7913e-05,2.4e-06,0.0,0 STARLINK-5480,1 55664U 23021AN  24198.52432422  .00000240  00000-0  27913-4 0  9994,2 55664  69.9984 240.2924 0003479 268.1165  91.9596 14.98328110 79235,6950.199,96.107,574.482,569.646,0.0
55664.0,STARLINK-5480,PAYLOAD,2024-07-17 04:36:22,14.98331464,0.0003477,69.9985,238.6097,268.8838,91.1923,2.2991e-05,1.81e-06,0.0,0 STARLINK-5480,1 55664U 23021AN  24199.19192253  .00000181  00000-0  22991-4 0  9998,2 55664  69.9985 238.6097 0003477 268.8838  91.1923 14.98331464 79030,6950.188,96.107,574.47,569.637,0.0
55664.0,STARLINK-5480,PAYLOAD,2024-07-17 12:37:02,14.98334472,0.0003481,69.9984,237.7677,268.4017,91.6743,4.832e-05,4.84e-06,0.0,0 STARLINK-5480,1 55664U 23021AN  24199.52572037  .00000484  00000-0  48320-4 0  9997,2 55664  69.9984 237.7677 0003481 268.4017  91.6743 14.98334472 79388,6950.179,96.107,574.463,569.625,0.0
55664.0,STARLINK-5480,PAYLOAD,2024-07-18 04:38:23,14.98328382,0.0003553,69.9981,236.0833,270.0982,89.977,7.485e-05,8e-06,0.0,0 STARLINK-5480,1 55664U 23021AN  24200.19332339  .00000800  00000-0  74850-4 0  9991,2 55664  69.9981 236.0833 0003553 270.0982  89.9770 14.98328382 79182,6950.198,96.107,574.532,569.593,0.0
55664.0,STARLINK-5480,PAYLOAD,2024-07-18 12:39:03,14.98329082,0.0003508,69.9983,235.2424,269.1911,90.8846,6.0425e-05,6.28e-06,0.0,0 STARLINK-5480,1 55664U 23021AN  24200.52712396  .00000628  00000-0  60425-4 0  9994,2 55664  69.9983 235.2424 0003508 269.1911  90.8846 14.98329082 79534,6950.196,96.107,574.499,569.623,0.0
55664.0,STARLINK-5480,PAYLOAD,2024-07-19 12:41:04,14.98333088,0.0003522,69.9982,232.7176,268.5792,91.4964,4.4187e-05,4.34e-06,0.0,0 STARLINK-5480,1 55664U 23021AN  24201.52852059  .00000434  00000-0  44187-4 0  9998,2 55664  69.9982 232.7176 0003522 268.5792  91.4964 14.98333088 79387,6950.183,96.107,574.496,569.6,0.0
55664.0,STARLINK-5480,PAYLOAD,2024-07-20 11:06:57,14.98330307,0.0003563,69.9982,230.3606,270.2421,89.833,5.468e-05,5.59e-06,0.0,0 STARLINK-5480,1 55664U 23021AN  24202.46316161  .00000559  00000-0  54680-4 0  9998,2 55664  69.9982 230.3606 0003563 270.2421  89.8330 14.98330307 79821,6950.192,96.107,574.533,569.581,0.0
55664.0,STARLINK-5480,PAYLOAD,2024-07-21 04:44:25,14.98332156,0.0003525,69.9983,228.5085,268.5867,91.4889,4.0514e-05,3.9e-06,0.0,0 STARLINK-5480,1 55664U 23021AN  24203.19752032  .00000390  00000-0  40514-4 0  9994,2 55664  69.9983 228.5085 0003525 268.5867  91.4889 14.98332156 79635,6950.186,96.107,574.501,569.601,0.0
55664.0,STARLINK-5480,PAYLOAD,2024-07-21 11:08:58,14.98332092,0.0003555,69.9983,227.8352,268.8908,91.1844,3.3858e-05,3.11e-06,0.0,0 STARLINK-5480,1 55664U 23021AN  24203.46456020  .00000311  00000-0  33858-4 0  9998,2 55664  69.9983 227.8352 0003555 268.8908  91.1844 14.98332092 79970,6950.186,96.107,574.522,569.581,0.0
55664.0,STARLINK-5480,PAYLOAD,2024-07-22 04:46:26,14.98331004,0.0003609,69.9981,225.983,268.1327,91.9418,4.6387e-05,4.6e-06,0.0,0 STARLINK-5480,1 55664U 23021AN  24204.19891995  .00000460  00000-0  46387-4 0  9999,2 55664  69.9981 225.9830 0003609 268.1327  91.9418 14.98331004 79782,6950.19,96.107,574.563,569.546,0.0
55664.0,STARLINK-5480,PAYLOAD,2024-07-22 11:10:58,14.98331633,0.0003623,69.9983,225.31,268.6852,91.3892,5.0248e-05,5.07e-06,0.0,0 STARLINK-5480,1 55664U 23021AN  24204.46595955  .00000507  00000-0  50248-4 0  9999,2 55664  69.9983 225.3100 0003623 268.6852  91.3892 14.98331633 80120,6950.188,96.107,574.571,569.535,0.0
55664.0,STARLINK-5480,PAYLOAD,2024-07-23 04:48:27,14.98332374,0.000364,69.9985,223.4589,267.2262,92.8481,5.0992e-05,5.15e-06,0.0,0 STARLINK-5480,1 55664U 23021AN  24205.20031854  .00000515  00000-0  50992-4 0  9990,2 55664  69.9985 223.4589 0003640 267.2262  92.8481 14.98332374 79931,6950.186,96.107,574.58,569.521,0.0
55664.0,STARLINK-5480,PAYLOAD,2024-07-23 09:36:51,14.98333119,0.0003631,69.9986,222.954,268.3084,91.7659,5.8548e-05,6.06e-06,0.0,0 STARLINK-5480,1 55664U 23021AN  24205.40059777  .00000606  00000-0  58548-4 0  9992,2 55664  69.9986 222.9540 0003631 268.3084  91.7659 14.98333119 80268,6950.183,96.107,574.572,569.525,0.0
55664.0,STARLINK-5480,PAYLOAD,2024-07-24 04:50:28,14.98330429,0.0003641,69.9986,220.9336,269.1439,90.9303,3.52e-05,3.27e-06,0.0,0 STARLINK-5480,1 55664U 23021AN  24206.20171930  .00000327  00000-0  35200-4 0  9997,2 55664  69.9986 220.9336 0003641 269.1439  90.9303 14.98330429 80081,6950.192,96.107,574.587,569.526,0.0
55664.0,STARLINK-5480,PAYLOAD,2024-07-24 11:15:00,14.98330459,0.0003638,69.9987,220.2604,269.0763,90.9979,3.2818e-05,2.99e-06,0.0,0 STARLINK-5480,1 55664U 23021AN  24206.46875939  .00000299  00000-0  32818-4 0  9995,2 55664  69.9987 220.2604 0003638 269.0763  90.9979 14.98330459 80428,6950.191,96.107,574.585,569.528,0.0
55664.0,STARLINK-5480,PAYLOAD,2024-07-25 04:52:29,14.98334112,0.0003664,69.9986,218.4087,269.3625,90.7114,6.1313e-05,6.39e-06,0.0,0 STARLINK-5480,1 55664U 23021AN  24207.20311533  .00000639  00000-0  61313-4 0  9993,2 55664  69.9986 218.4087 0003664 269.3625  90.7114 14.98334112 80238,6950.18,96.107,574.592,569.499,0.0
55664.0,STARLINK-5480,PAYLOAD,2024-07-25 06:28:37,14.98334433,0.0003644,69.9987,218.2405,269.2082,90.8659,6.5217e-05,6.85e-06,0.0,0 STARLINK-5480,1 55664U 23021AN  24207.26987490  .00000685  00000-0  65217-4 0  9998,2 55664  69.9987 218.2405 0003644 269.2082  90.8659 14.98334433 80540,6950.179,96.107,574.577,569.512,0.0
55664.0,STARLINK-5480,PAYLOAD,2024-07-25 09:40:53,14.98334481,0.0003644,69.9987,217.9039,269.1984,90.8758,6.3934e-05,6.7e-06,0.0,0 STARLINK-5480,1 55664U 23021AN  24207.40339463  .00000670  00000-0  63934-4 0  9993,2 55664  69.9987 217.9039 0003644 269.1984  90.8758 14.98334481 80564,6950.179,96.107,574.577,569.511,0.0
55664.0,STARLINK-5480,PAYLOAD,2024-07-26 04:54:30,14.98325655,0.0003585,69.9989,215.8842,268.4156,91.6592,1.4414e-06,-7.6e-07,0.0,0 STARLINK-5480,1 55664U 23021AN  24208.20452124 -.00000076  00000-0  14414-5 0  9993,2 55664  69.9989 215.8842 0003585 268.4156  91.6592 14.98325655 80380,6950.206,96.107,574.563,569.58,0.0
55664.0,STARLINK-5480,PAYLOAD,2024-07-26 09:42:54,14.98326506,0.0003502,69.999,215.3796,267.2023,92.8735,1.5528e-05,9.2e-07,0.0,0 STARLINK-5480,1 55664U 23021AN  24208.40480071  .00000092  00000-0  15528-4 0  9990,2 55664  69.9990 215.3796 0003502 267.2023  92.8735 14.98326506 80719,6950.204,96.107,574.503,569.635,0.0
55664.0,STARLINK-5480,PAYLOAD,2024-07-26 17:43:35,14.98329068,0.0003499,69.999,214.5379,268.3502,91.7256,5.8056e-06,-2.4e-07,0.0,0 STARLINK-5480,1 55664U 23021AN  24208.73859977 -.00000024  00000-0  58056-5 0  9991,2 55664  69.9990 214.5379 0003499 268.3502  91.7256 14.98329068 80763,6950.196,96.107,574.493,569.629,0.0
55664.0,STARLINK-5480,PAYLOAD,2024-07-27 04:56:31,14.98331047,0.0003473,69.999,213.3597,267.8872,92.189,9.6265e-06,2.2e-07,0.0,0 STARLINK-5480,1 55664U 23021AN  24209.20591834  .00000022  00000-0  96265-5 0  9990,2 55664  69.9990 213.3597 0003473 267.8872  92.1890 14.98331047 80532,6950.19,96.107,574.468,569.641,0.0
